[{"OBJECT_NAME":"ONEWEB-0333","OBJECT_ID":"2021-083P","EPOCH":"2026-03-09T17:28:54.166944","MEAN_MOTION":13.1347055,"ECCENTRICITY":0.0001646,"INCLINATION":87.9026,"RA_OF_ASC_NODE":340.0264,"ARG_OF_PERICENTER":78.3921,"MEAN_ANOMALY":281.7393,"EPHEMERIS_TYPE":0,"CLASSIFICATION_TYPE":"U","NORAD_CAT_ID":49199,"ELEMENT_SET_NO":999,"REV_AT_EPOCH":21785,"BSTAR":0.00048803044,"MEAN_MOTION_DOT":1.91e-6,"MEAN_MOTION_DDOT":0},{"OBJECT_NAME":"SL-14 DEB","OBJECT_ID":"1991-056H","EPOCH":"2026-03-09T11:35:06.232992","MEAN_MOTION":13.06822582,"ECCENTRICITY":0.00514135,"INCLINATION":82.4151,"RA_OF_ASC_NODE":228.9631,"ARG_OF_PERICENTER":227.9174,"MEAN_ANOMALY":131.7565,"EPHEMERIS_TYPE":0,"CLASSIFICATION_TYPE":"U","NORAD_CAT_ID":45271,"ELEMENT_SET_NO":999,"REV_AT_EPOCH":28881,"BSTAR":-0.00058687374,"MEAN_MOTION_DOT":-1.84e-6,"MEAN_MOTION_DDOT":0}]
